BEIDOU 3 (C01)          
1 36287U 10001A   21041.89850747 -.00000297  00000-0  00000-0 0  9993
2 36287   1.6904  40.9210 0002967 102.5387 101.5779  1.00273654 40590
BEIDOU 5 (C06)          
1 36828U 10036A   21041.34574360 -.00000164  00000-0  00000-0 0  9999
2 36828  54.1757 180.7753 0106518 234.1035 325.2456  1.00300982 38638
BEIDOU 6 (C04)          
1 37210U 10057A   21041.90234586 -.00000129  00000-0  00000-0 0  9994
2 37210   0.9210  52.7668 0004458 194.2440  19.0628  1.00270988 37704
BEIDOU 7 (C07)          
1 37256U 10068A   21041.80144858 -.00000191  00000-0  00000-0 0  9996
2 37256  51.0762 295.5037 0081896 216.7296  34.6239  1.00296753 37226
BEIDOU 8 (C08)          
1 37384U 11013A   21041.67214295 -.00000168  00000-0  00000-0 0  9991
2 37384  59.6024  59.1776 0055215 206.8972 235.5173  1.00289449 36091
BEIDOU 9 (C09)          
1 37763U 11038A   21041.78173402 -.00000095  00000-0  00000-0 0  9994
2 37763  54.4630 183.1962 0077423 223.7108 108.8207  1.00290899 35064
BEIDOU 10 (C10)         
1 37948U 11073A   21041.87102030 -.00000132  00000-0  00000-0 0  9999
2 37948  51.1773 295.1154 0069375 215.4951  39.8433  1.00281473 33823
BEIDOU 11 (C05)         
1 38091U 12008A   21041.88219433  .00000039  00000-0  00000-0 0  9990
2 38091   1.9858  71.5911 0003905 254.2782 191.5870  1.00274622 32904
BEIDOU 12 (C11)         
1 38250U 12018A   21041.66912848 -.00000105  00000-0  00000-0 0  9999
2 38250  56.7570   9.7978 0024018 251.1543 359.5968  1.86234316 59920
BEIDOU 13 (C12)         
1 38251U 12018B   21041.51061133 -.00000105  00000-0  00000-0 0  9996
2 38251  56.6797   9.1595 0015202 256.3784 292.5410  1.86234199 59926
BEIDOU 15 (C14)         
1 38775U 12050B   21041.62757939 -.00000036  00000-0  00000-0 0  9994
2 38775  55.1510 128.2601 0013614 317.7462 146.9554  1.86232328 57308
BEIDOU 16 (C02)         
1 38953U 12059A   21041.84980193 -.00000191  00000-0  00000+0 0  9996
2 38953   1.6658  84.8620 0009839 263.4501 182.6363  1.00268497 30474
BEIDOU 17 (C31)         
1 40549U 15019A   21041.86943964 -.00000173  00000-0  00000-0 0  9997
2 40549  52.6962 318.4552 0036318 188.6627  41.0739  1.00293389 21508
BEIDOU 18 (C57)         
1 40748U 15037A   21041.73565904 -.00000107  00000-0  00000-0 0  9995
2 40748  55.9447   8.3152 0005034 335.2724 274.5748  1.86233422 37756
BEIDOU 19 (C58)         
1 40749U 15037B   21041.45585505 -.00000107  00000-0  00000-0 0  9994
2 40749  55.9487   8.3116 0007307 307.4048 251.4998  1.86232269 37744
BEIDOU 20 (C18)         
1 40938U 15053A   21041.62896671 -.00000094  00000-0  00000-0 0  9995
2 40938  52.2562 281.5114 0045922 190.6503 351.0303  1.00265223 19787
BEIDOU IGSO-6 (C13)     
1 41434U 16021A   21041.34981536 -.00000126  00000-0  00000-0 0  9993
2 41434  57.3790  57.9799 0041219 215.6476  86.6647  1.00294474 17896
BEIDOU-2 G7 (C03)       
1 41586U 16037A   21041.88978971 -.00000372  00000-0  00000-0 0  9999
2 41586   1.9894  69.7337 0009211   1.0347 141.2529  1.00272192 17219
BEIDOU-3 M1 (C19)       
1 43001U 17069A   21041.91180788 -.00000033  00000-0  00000-0 0  9998
2 43001  55.3072 128.1864 0009472 284.1914 167.4336  1.86231711 22243
BEIDOU-3 M2 (C20)       
1 43002U 17069B   21041.84725701 -.00000033  00000-0  00000-0 0  9991
2 43002  55.3061 128.2234 0007809 307.7227 144.2443  1.86231493 22233
BEIDOU-3 M3 (C27)       
1 43107U 18003A   21041.80348823 -.00000107  00000-0  00000-0 0  9990
2 43107  55.3848   9.4501 0004230  24.8397 203.6558  1.86232514 20992
BEIDOU-3 M4 (C28)       
1 43108U 18003B   21041.73609918 -.00000107  00000-0  00000-0 0  9998
2 43108  55.3786   9.4439 0004189 259.4705 329.0263  1.86232514 20992
BEIDOU-3 M5 (C21)       
1 43207U 18018A   21041.30574862 -.00000039  00000-0  00000-0 0  9990
2 43207  55.2643 128.3360 0005623 326.4169  33.5722  1.86231469 20377
BEIDOU-3 M6 (C22)       
1 43208U 18018B   21041.37246867 -.00000038  00000-0  00000-0 0  9998
2 43208  55.2638 128.3386 0008028 294.3695  65.5719  1.86231654 20376
BEIDOU-3 M7 (C29)       
1 43245U 18029A   21041.84938317 -.00000109  00000-0  00000-0 0  9990
2 43245  55.3223   7.2469 0001666 309.0551 220.3357  1.86232336 19534
BEIDOU-3 M8 (C30)       
1 43246U 18029B   21041.74887863 -.00000109  00000-0  10000-3 0  9993
2 43246  55.3194   7.2817 0005387 336.2239 171.8718  1.86232516 19528
BEIDOU IGSO-7 (C16)     
1 43539U 18057A   21041.91774421 -.00000156  00000-0  00000-0 0  9991
2 43539  55.0557 180.0913 0031920 212.5684 191.3260  1.00251784  9580
BEIDOU-3 M9 (C23)       
1 43581U 18062A   21041.66882580  .00000049  00000-0  00000-0 0  9992
2 43581  54.4549 248.9502 0002549 318.1368 346.0778  1.86231866 17266
BEIDOU-3 M10 (C24)      
1 43582U 18062B   21041.66327823  .00000050  00000-0  00000-0 0  9999
2 43582  54.4540 248.9385 0006549  13.6120  18.1239  1.86232179 17272
BEIDOU-3 M11 (C25)      
1 43602U 18067A   21041.66810053  .00000050  00000-0  00000-0 0  9999
2 43602  54.5273 247.5099 0007392   5.2217  72.1692  1.86231629 16762
BEIDOU-3 M12 (C26)      
1 43603U 18067B   21041.38757343  .00000054  00000-0  00000-0 0  9995
2 43603  54.5251 247.4884 0004658 359.2058 160.5941  1.86231539 16777
BEIDOU-3 M13 (C32)      
1 43622U 18072A   21041.60476188 -.00000036  00000-0  00000-0 0  9993
2 43622  55.2302 127.9000 0005883 279.4929  56.2357  1.86231501 16283
BEIDOU-3 M14 (C33)      
1 43623U 18072B   21041.65773682 -.00000035  00000-0  00000-0 0  9997
2 43623  55.2305 127.8889 0004317 304.5008 156.9760  1.86231461 16292
BEIDOU-3 M15 (C34)      
1 43647U 18078A   21041.43079495 -.00000108  00000-0  10000-3 0  9991
2 43647  55.2140   7.4617 0007418 342.3896 222.1293  1.86232777 15799
BEIDOU-3 M16 (C35)      
1 43648U 18078B   21041.43391108 -.00000108  00000-0  10000-3 0  9990
2 43648  55.2113   7.4692 0005361 349.3604 125.9172  1.86232007 15817
BEIDOU-3 G1 (C59)       
1 43683U 18085A   21041.68305911 -.00000297  00000-0  00000+0 0  9995
2 43683   1.2763 240.2893 0002580  24.7787 261.7064  1.00268077  8480
BEIDOU-3 M17 (C36)      
1 43706U 18093A   21041.91370719  .00000046  00000-0  00000+0 0  9995
2 43706  54.5345 248.7903 0007867 280.5444  52.8115  1.86231870 15167
BEIDOU-3 M18 (C37)      
1 43707U 18093B   21041.67466574  .00000050  00000-0  00000-0 0  9990
2 43707  54.5355 248.7888 0007521 310.4434 313.3842  1.86232148 15161
BEIDOU-3 IGSO-1 (C38)   
1 44204U 19023A   21041.85208340 -.00000192  00000-0  00000-0 0  9990
2 44204  55.8373  58.2953 0017349 204.6552 299.2923  1.00277485  6788
BEIDOU-2 G8             
1 44231U 19027A   21041.89929259 -.00000265  00000-0  00000-0 0  9998
2 44231   0.4621 313.2275 0006664 266.5264  29.6323  1.00267790  6503
BEIDOU-3 IGSO-2 (C39)   
1 44337U 19035A   21041.80049498 -.00000153  00000-0  00000-0 0  9999
2 44337  55.0857 176.1372 0017049 185.4708 175.1802  1.00269566  6122
BEIDOU-3 M23 (C45)      
1 44542U 19061A   21041.84208689  .00000048  00000-0  10000-3 0  9995
2 44542  54.7601 248.8379 0008616 343.8576 345.6847  1.86231283  9428
BEIDOU-3 M24 (C46)      
1 44543U 19061B   21041.46938564  .00000053  00000-0  10000-3 0  9992
2 44543  54.7586 248.8219 0005771 342.5689   7.7676  1.86231405  9426
BEIDOU-3 IGSO-3         
1 44709U 19073A   21040.61358964 -.00000160  00000-0  00000+0 0  9990
2 44709  58.0400 301.4723 0019208 194.7658 331.7208  1.00263538  4863
BEIDOU-3 M21            
1 44793U 19078A   21041.46667458 -.00000108  00000-0  10000-3 0  9990
2 44793  55.0635   7.5405 0007176 349.2206 193.9599  1.86232315  8285
BEIDOU-3 M22            
1 44794U 19078B   21041.59953421 -.00000109  00000-0  10000-3 0  9994
2 44794  55.0399   7.5404 0005285 340.6379 202.3558  1.86232878  8281
BEIDOU-3 M19            
1 44864U 19090A   21041.54116008 -.00000037  00000-0  00000-0 0  9999
2 44864  55.1658 128.1380 0015627 262.0664  76.4106  1.86231796  7866
BEIDOU-3 M20            
1 44865U 19090B   21041.60754881 -.00000036  00000-0  00000-0 0  9993
2 44865  55.1657 128.1669 0014536 277.5549 195.3531  1.86231718  7853
BEIDOU-3 G2             
1 45344U 20017A   21041.85049637 -.00000154  00000-0  00000-0 0  9991
2 45344   2.6000 333.3327 0001507  49.2257 144.7259  1.00272635  3681
BEIDOU-3 G3             
1 45807U 20040A   21041.82071750 -.00000368  00000-0  00000+0 0  9995
2 45807   2.5749 298.3840 0009778  15.2396 233.4404  1.00270113  2506
